[
    {
        "Altitude(m)": 571842.6976621875,
        "Argument of Periapsis(deg)": 0.013245982221427002,
        "Eccentricity": 0.0,
        "Inclination(deg)": 53.0,
        "Latitude(deg)": -53.14492359870626,
        "Longitude(deg)": -122.75830021099458,
        "Mean Anomaly(deg)": 269.27408573515515,
        "RAAN(deg)": 69.98028673705603,
        "Satellite Name": "Starlink Shell 1 323",
        "Satellite Number": 323,
        "Semi-Major Axis(m)": 6931778.249405717,
        "Time(s)": 380
    },
    {
        "Altitude(m)": 571844.8379224389,
        "Argument of Periapsis(deg)": 0.013594560700938237,
        "Eccentricity": 0.0,
        "Inclination(deg)": 53.0,
        "Latitude(deg)": -53.15068754308003,
        "Longitude(deg)": -121.76095930844822,
        "Mean Anomaly(deg)": 269.90091693871193,
        "RAAN(deg)": 69.97976796697856,
        "Satellite Name": "Starlink Shell 1 323",
        "Satellite Number": 323,
        "Semi-Major Axis(m)": 6931778.249405717,
        "Time(s)": 390
    },
    {
        "Altitude(m)": 571843.4970584165,
        "Argument of Periapsis(deg)": 0.013943139180449475,
        "Eccentricity": 0.0,
        "Inclination(deg)": 53.0,
        "Latitude(deg)": -53.147397316805005,
        "Longitude(deg)": -120.76355896480999,
        "Mean Anomaly(deg)": 270.52774814226854,
        "RAAN(deg)": 69.9792491969011,
        "Satellite Name": "Starlink Shell 1 323",
        "Satellite Number": 323,
        "Semi-Major Axis(m)": 6931778.249405717,
        "Time(s)": 400
    },
    {
        "Altitude(m)": 571838.6755839491,
        "Argument of Periapsis(deg)": 0.014291717659960712,
        "Eccentricity": 0.0,
        "Inclination(deg)": 53.0,
        "Latitude(deg)": -53.13505536100539,
        "Longitude(deg)": -119.76653487285056,
        "Mean Anomaly(deg)": 271.1545793458253,
        "RAAN(deg)": 69.97873042682362,
        "Satellite Name": "Starlink Shell 1 323",
        "Satellite Number": 323,
        "Semi-Major Axis(m)": 6931778.249405717,
        "Time(s)": 410
    },
    {
        "Altitude(m)": 571830.3754023494,
        "Argument of Periapsis(deg)": 0.014640296139471948,
        "Eccentricity": 0.0,
        "Inclination(deg)": 53.0,
        "Latitude(deg)": -53.113670826464045,
        "Longitude(deg)": -118.77032210364733,
        "Mean Anomaly(deg)": 271.78141054938203,
        "RAAN(deg)": 69.97821165674614,
        "Satellite Name": "Starlink Shell 1 323",
        "Satellite Number": 323,
        "Semi-Major Axis(m)": 6931778.249405717,
        "Time(s)": 420
    },
    {
        "Altitude(m)": 571818.5998055729,
        "Argument of Periapsis(deg)": 0.014988874618983185,
        "Eccentricity": 0.0,
        "Inclination(deg)": 53.0,
        "Latitude(deg)": -53.08325954011362,
        "Longitude(deg)": -117.77535330619608,
        "Mean Anomaly(deg)": 272.4082417529387,
        "RAAN(deg)": 69.97769288666868,
        "Satellite Name": "Starlink Shell 1 323",
        "Satellite Number": 323,
        "Semi-Major Axis(m)": 6931778.249405717,
        "Time(s)": 430
    },
    {
        "Altitude(m)": 571803.353472813,
        "Argument of Periapsis(deg)": 0.015337453098494424,
        "Eccentricity": 0.0,
        "Inclination(deg)": 53.0,
        "Latitude(deg)": -53.04384394725759,
        "Longitude(deg)": -116.7820569247764,
        "Mean Anomaly(deg)": 273.03507295649547,
        "RAAN(deg)": 69.9771741165912,
        "Satellite Name": "Starlink Shell 1 323",
        "Satellite Number": 323,
        "Semi-Major Axis(m)": 6931778.249405717,
        "Time(s)": 440
    },
    {
        "Altitude(m)": 571784.6424684685,
        "Argument of Periapsis(deg)": 0.01568603157800566,
        "Eccentricity": 0.0,
        "Inclination(deg)": 53.0,
        "Latitude(deg)": -52.99545303001342,
        "Longitude(deg)": -115.7908569561887,
        "Mean Anomaly(deg)": 273.66190416005213,
        "RAAN(deg)": 69.97665534651372,
        "Satellite Name": "Starlink Shell 1 323",
        "Satellite Number": 323,
        "Semi-Major Axis(m)": 6931778.249405717,
        "Time(s)": 450
    },
    {
        "Altitude(m)": 571762.4742395437,
        "Argument of Periapsis(deg)": 0.0160346100575169,
        "Eccentricity": 0.0,
        "Inclination(deg)": 53.0,
        "Latitude(deg)": -52.93812220267298,
        "Longitude(deg)": -114.80217122997567,
        "Mean Anomaly(deg)": 274.2887353636089,
        "RAAN(deg)": 69.97613657643626,
        "Satellite Name": "Starlink Shell 1 323",
        "Satellite Number": 323,
        "Semi-Major Axis(m)": 6931778.249405717,
        "Time(s)": 460
    },
    {
        "Altitude(m)": 571736.8576124134,
        "Argument of Periapsis(deg)": 0.016383188537028134,
        "Eccentricity": 0.0,
        "Inclination(deg)": 53.0,
        "Latitude(deg)": -52.871893184858536,
        "Longitude(deg)": -113.81640973289427,
        "Mean Anomaly(deg)": 274.9155665671656,
        "RAAN(deg)": 69.97561780635877,
        "Satellite Name": "Starlink Shell 1 323",
        "Satellite Number": 323,
        "Semi-Major Axis(m)": 6931778.249405717,
        "Time(s)": 470
    },
    {
        "Altitude(m)": 571707.8027890137,
        "Argument of Periapsis(deg)": 0.01673176701653937,
        "Eccentricity": 0.0,
        "Inclination(deg)": 53.0,
        "Latitude(deg)": -52.796813853527674,
        "Longitude(deg)": -112.83397449831178,
        "Mean Anomaly(deg)": 275.54239777072235,
        "RAAN(deg)": 69.9750990362813,
        "Satellite Name": "Starlink Shell 1 323",
        "Satellite Number": 323,
        "Semi-Major Axis(m)": 6931778.249405717,
        "Time(s)": 480
    },
    {
        "Altitude(m)": 571675.3213424454,
        "Argument of Periapsis(deg)": 0.017080345496050607,
        "Eccentricity": 0.0,
        "Inclination(deg)": 53.0,
        "Latitude(deg)": -52.71293807504388,
        "Longitude(deg)": -111.85525804189483,
        "Mean Anomaly(deg)": 276.169228974279,
        "RAAN(deg)": 69.97458026620383,
        "Satellite Name": "Starlink Shell 1 323",
        "Satellite Number": 323,
        "Semi-Major Axis(m)": 6931778.249405717,
        "Time(s)": 490
    },
    {
        "Altitude(m)": 571639.4262119585,
        "Argument of Periapsis(deg)": 0.017428923975561842,
        "Eccentricity": 0.0,
        "Inclination(deg)": 53.0,
        "Latitude(deg)": -52.620325518667414,
        "Longitude(deg)": -110.88064186282672,
        "Mean Anomaly(deg)": 276.7960601778357,
        "RAAN(deg)": 69.97406149612635,
        "Satellite Name": "Starlink Shell 1 323",
        "Satellite Number": 323,
        "Semi-Major Axis(m)": 6931778.249405717,
        "Time(s)": 500
    },
    {
        "Altitude(m)": 571600.1316973554,
        "Argument of Periapsis(deg)": 0.01777750245507308,
        "Eccentricity": 0.0,
        "Inclination(deg)": 53.0,
        "Latitude(deg)": -52.519041452942204,
        "Longitude(deg)": -109.9104965289645,
        "Mean Anomaly(deg)": 277.4228913813925,
        "RAAN(deg)": 69.97354272604889,
        "Satellite Name": "Starlink Shell 1 323",
        "Satellite Number": 323,
        "Semi-Major Axis(m)": 6931778.249405717,
        "Time(s)": 510
    },
    {
        "Altitude(m)": 571557.4534528205,
        "Argument of Periapsis(deg)": 0.018126080934584315,
        "Eccentricity": 0.0,
        "Inclination(deg)": 53.0,
        "Latitude(deg)": -52.409156526561915,
        "Longitude(deg)": -108.94518032485287,
        "Mean Anomaly(deg)": 278.04972258494917,
        "RAAN(deg)": 69.97302395597141,
        "Satellite Name": "Starlink Shell 1 323",
        "Satellite Number": 323,
        "Semi-Major Axis(m)": 6931778.249405717,
        "Time(s)": 520
    },
    {
        "Altitude(m)": 571511.4084801278,
        "Argument of Periapsis(deg)": 0.018474659414095554,
        "Eccentricity": 0.0,
        "Inclination(deg)": 53.0,
        "Latitude(deg)": -52.290746535361095,
        "Longitude(deg)": -107.98503797912787,
        "Mean Anomaly(deg)": 278.6765537885059,
        "RAAN(deg)": 69.97250518589394,
        "Satellite Name": "Starlink Shell 1 323",
        "Satellite Number": 323,
        "Semi-Major Axis(m)": 6931778.249405717,
        "Time(s)": 530
    },
    {
        "Altitude(m)": 571462.0151213218,
        "Argument of Periapsis(deg)": 0.018823237893606792,
        "Eccentricity": 0.0,
        "Inclination(deg)": 53.0,
        "Latitude(deg)": -52.163892177221165,
        "Longitude(deg)": -107.03040098763594,
        "Mean Anomaly(deg)": 279.3033849920626,
        "RAAN(deg)": 69.97198641581647,
        "Satellite Name": "Starlink Shell 1 323",
        "Satellite Number": 323,
        "Semi-Major Axis(m)": 6931778.249405717,
        "Time(s)": 540
    },
    {
        "Altitude(m)": 571409.2930507306,
        "Argument of Periapsis(deg)": 0.019171816373118027,
        "Eccentricity": 0.0,
        "Inclination(deg)": 53.0,
        "Latitude(deg)": -52.02867879648017,
        "Longitude(deg)": -106.08158650701463,
        "Mean Anomaly(deg)": 279.9302161956193,
        "RAAN(deg)": 69.971467645739,
        "Satellite Name": "Starlink Shell 1 323",
        "Satellite Number": 323,
        "Semi-Major Axis(m)": 6931778.249405717,
        "Time(s)": 550
    },
    {
        "Altitude(m)": 571353.2632664847,
        "Argument of Periapsis(deg)": 0.019520394852629266,
        "Eccentricity": 0.0,
        "Inclination(deg)": 53.0,
        "Latitude(deg)": -51.885196119833886,
        "Longitude(deg)": -105.13889633449143,
        "Mean Anomaly(deg)": 280.557047399176,
        "RAAN(deg)": 69.97094887566152,
        "Satellite Name": "Starlink Shell 1 323",
        "Satellite Number": 323,
        "Semi-Major Axis(m)": 6931778.249405717,
        "Time(s)": 560
    }
]